{
    "links": {
        "self": "http://www.neowsapp.com/rest/v1/neo/54051014?api_key=iIulBulltgU6a56xZRHN4H3l9WmuAYTsLGpBGhQ2"
    },
    "id": "54051014",
    "neo_reference_id": "54051014",
    "name": "(2020 PV1)",
    "designation": "2020 PV1",
    "nasa_jpl_url": "http://ssd.jpl.nasa.gov/sbdb.cgi?sstr=54051014",
    "absolute_magnitude_h": 24.714,
    "estimated_diameter": {
        "kilometers": {
            "estimated_diameter_min": 0.0303217998,
            "estimated_diameter_max": 0.0678016057
        },
        "meters": {
            "estimated_diameter_min": 30.3217998435,
            "estimated_diameter_max": 67.8016056501
        },
        "miles": {
            "estimated_diameter_min": 0.0188410871,
            "estimated_diameter_max": 0.0421299515
        },
        "feet": {
            "estimated_diameter_min": 99.4809737984,
            "estimated_diameter_max": 222.4462198812
        }
    },
    "is_potentially_hazardous_asteroid": false,
    "close_approach_data": [
        {
            "close_approach_date": "2007-09-17",
            "close_approach_date_full": "2007-Sep-17 04:43",
            "epoch_date_close_approach": 1190004180000,
            "relative_velocity": {
                "kilometers_per_second": "13.5623805109",
                "kilometers_per_hour": "48824.5698393869",
                "miles_per_hour": "30337.6889649235"
            },
            "miss_distance": {
                "astronomical": "0.4073405184",
                "lunar": "158.4554616576",
                "kilometers": "60937273.917335808",
                "miles": "37864666.2043298304"
            },
            "orbiting_body": "Earth"
        },
        {
            "close_approach_date": "2020-08-23",
            "close_approach_date_full": "2020-Aug-23 02:16",
            "epoch_date_close_approach": 1598148960000,
            "relative_velocity": {
                "kilometers_per_second": "4.9836905364",
                "kilometers_per_hour": "17941.2859311133",
                "miles_per_hour": "11148.0173609187"
            },
            "miss_distance": {
                "astronomical": "0.1317753286",
                "lunar": "51.2606028254",
                "kilometers": "19713308.477110082",
                "miles": "12249281.8809278516"
            },
            "orbiting_body": "Earth"
        },
        {
            "close_approach_date": "2020-11-11",
            "close_approach_date_full": "2020-Nov-11 10:42",
            "epoch_date_close_approach": 1605091320000,
            "relative_velocity": {
                "kilometers_per_second": "8.8955305",
                "kilometers_per_hour": "32023.9098000072",
                "miles_per_hour": "19898.4121754545"
            },
            "miss_distance": {
                "astronomical": "0.0639939471",
                "lunar": "24.8936454219",
                "kilometers": "9573358.179052677",
                "miles": "5948608.9318018626"
            },
            "orbiting_body": "Mars"
        },
        {
            "close_approach_date": "2033-07-26",
            "close_approach_date_full": "2033-Jul-26 15:18",
            "epoch_date_close_approach": 2006003880000,
            "relative_velocity": {
                "kilometers_per_second": "12.5787619437",
                "kilometers_per_hour": "45283.542997145",
                "miles_per_hour": "28137.4325917538"
            },
            "miss_distance": {
                "astronomical": "0.3903931249",
                "lunar": "151.8629255861",
                "kilometers": "58401979.947683963",
                "miles": "36289307.5819381694"
            },
            "orbiting_body": "Earth"
        }
    ],
    "orbital_data": {
        "orbit_id": "6",
        "orbit_determination_date": "2020-09-11 07:48:43",
        "first_observation_date": "2020-08-11",
        "last_observation_date": "2020-09-10",
        "data_arc_in_days": 30,
        "observations_used": 33,
        "orbit_uncertainty": "6",
        "minimum_orbit_intersection": ".13236",
        "jupiter_tisserand_invariant": "3.514",
        "epoch_osculation": "2459000.5",
        "eccentricity": ".4793267406517914",
        "semi_major_axis": "2.187494871032742",
        "inclination": "4.152634404908962",
        "ascending_node_longitude": "174.6446953211251",
        "orbital_period": "1181.731989359058",
        "perihelion_distance": "1.138970084308107",
        "perihelion_argument": "154.5362165628044",
        "aphelion_distance": "3.236019657757376",
        "perihelion_time": "2459083.720234729123",
        "mean_anomaly": "334.6479872151609",
        "mean_motion": ".3046376024696218",
        "equinox": "J2000",
        "orbit_class": {
            "orbit_class_type": "AMO",
            "orbit_class_description": "Near-Earth asteroid orbits similar to that of 1221 Amor",
            "orbit_class_range": "1.017 AU < q (perihelion) < 1.3 AU"
        }
    },
    "is_sentry_object": false
}